{
    "links": {
        "self": "http://www.neowsapp.com/rest/v1/neo/3267312?api_key=iIulBulltgU6a56xZRHN4H3l9WmuAYTsLGpBGhQ2"
    },
    "id": "3267312",
    "neo_reference_id": "3267312",
    "name": "(2005 CP7)",
    "designation": "2005 CP7",
    "nasa_jpl_url": "http://ssd.jpl.nasa.gov/sbdb.cgi?sstr=3267312",
    "absolute_magnitude_h": 25.4,
    "estimated_diameter": {
        "kilometers": {
            "estimated_diameter_min": 0.022108281,
            "estimated_diameter_max": 0.0494356193
        },
        "meters": {
            "estimated_diameter_min": 22.1082810359,
            "estimated_diameter_max": 49.435619262
        },
        "miles": {
            "estimated_diameter_min": 0.0137374447,
            "estimated_diameter_max": 0.0307178602
        },
        "feet": {
            "estimated_diameter_min": 72.5337327539,
            "estimated_diameter_max": 162.1903570994
        }
    },
    "is_potentially_hazardous_asteroid": false,
    "close_approach_data": [
        {
            "close_approach_date": "2005-01-30",
            "close_approach_date_full": "2005-Jan-30 04:20",
            "epoch_date_close_approach": 1107058800000,
            "relative_velocity": {
                "kilometers_per_second": "7.5503954104",
                "kilometers_per_hour": "27181.42347759",
                "miles_per_hour": "16889.479493617"
            },
            "miss_distance": {
                "astronomical": "0.014369077",
                "lunar": "5.589570953",
                "kilometers": "2149583.31306599",
                "miles": "1335689.134011062"
            },
            "orbiting_body": "Earth"
        }
    ],
    "orbital_data": {
        "orbit_id": "7",
        "orbit_determination_date": "2017-04-06 09:11:29",
        "first_observation_date": "2005-02-03",
        "last_observation_date": "2005-02-07",
        "data_arc_in_days": 4,
        "observations_used": 31,
        "orbit_uncertainty": "8",
        "minimum_orbit_intersection": ".00636328",
        "jupiter_tisserand_invariant": "3.378",
        "epoch_osculation": "2453406.5",
        "eccentricity": ".5651142548023534",
        "semi_major_axis": "2.274825791553842",
        "inclination": "1.283430309581617",
        "ascending_node_longitude": "127.1591886408735",
        "orbital_period": "1253.200738707943",
        "perihelion_distance": ".9892893095547189",
        "perihelion_argument": "350.0248374633843",
        "aphelion_distance": "3.560362273552966",
        "perihelion_time": "2453390.410009087750",
        "mean_anomaly": "4.62208212100321",
        "mean_motion": ".2872644332871699",
        "equinox": "J2000",
        "orbit_class": {
            "orbit_class_type": "APO",
            "orbit_class_description": "Near-Earth asteroid orbits which cross the Earth’s orbit similar to that of 1862 Apollo",
            "orbit_class_range": "a (semi-major axis) > 1.0 AU; q (perihelion) < 1.017 AU"
        }
    },
    "is_sentry_object": false
}